ONEWEB-0235             
1 48771U 21045E   25081.80410572 -.00000119  00000+0 -35004-3 0  9999
2 48771  87.9127 349.1174 0002332  68.5914 291.5465 13.15547938185030
ONEWEB-0242             
1 48772U 21045F   25081.79776029 -.00000239  00000+0 -66901-3 0  9993
2 48772  87.9127 349.1046 0001990  78.2821 281.8533 13.15547959185078
ONEWEB-0241             
1 48773U 21045G   25081.78509123 -.00000287  00000+0 -79520-3 0  9996
2 48773  87.9123 349.1780 0001842  65.6709 294.4613 13.15547588184987
ONEWEB-0243             
1 48774U 21045H   25082.19707011  .00000258  00000+0  65109-3 0  9993
2 48774  87.9139 349.0603 0002266  70.8058 289.3317 13.15546637186197
ONEWEB-0222             
1 48775U 21045J   25082.48466263  .00000189  00000+0  46780-3 0  9994
2 48775  87.9126 348.9764 0001838  72.2433 287.8898 13.15548292186261
ONEWEB-0244             
1 48776U 21045K   25081.97841097 -.00000047  00000+0 -15794-3 0  9996
2 48776  87.9129 349.0554 0001993  78.6611 281.4743 13.15547355185643
ONEWEB-0247             
1 48777U 21045L   25081.97524312  .00000058  00000+0  11899-3 0  9997
2 48777  87.9135 349.1185 0002726  67.2666 292.8753 13.15547802185083
ONEWEB-0245             
1 48778U 21045M   25081.97048050  .00000142  00000+0  34237-3 0  9993
2 48778  87.9127 349.0914 0001766  70.4393 289.6928 13.15547079185051
